[{"OBJECT_NAME":"CENTISPACE-1 S3","OBJECT_ID":"2022-108A","EPOCH":"2026-03-09T21:17:43.722240","MEAN_MOTION":14.6113097,"ECCENTRICITY":0.00108359,"INCLINATION":53.532,"RA_OF_ASC_NODE":105.8367,"ARG_OF_PERICENTER":82.3446,"MEAN_ANOMALY":277.876,"EPHEMERIS_TYPE":0,"CLASSIFICATION_TYPE":"U","NORAD_CAT_ID":53757,"ELEMENT_SET_NO":999,"REV_AT_EPOCH":18701,"BSTAR":0.00015693315,"MEAN_MOTION_DOT":5.89e-6,"MEAN_MOTION_DDOT":0},{"OBJECT_NAME":"CZ-2C R\/B","OBJECT_ID":"2011-039B","EPOCH":"2026-03-09T16:15:10.143936","MEAN_MOTION":14.70242252,"ECCENTRICITY":0.00414153,"INCLINATION":98.1155,"RA_OF_ASC_NODE":326.9178,"ARG_OF_PERICENTER":267.1611,"MEAN_ANOMALY":92.4855,"EPHEMERIS_TYPE":0,"CLASSIFICATION_TYPE":"U","NORAD_CAT_ID":37766,"ELEMENT_SET_NO":999,"REV_AT_EPOCH":78217,"BSTAR":0.00016206499,"MEAN_MOTION_DOT":9.37e-6,"MEAN_MOTION_DDOT":0}]
